{
  "type": "FeatureCollection",
  "features": [
    {
      "type": "Feature",
      "properties": {
        "norad_id": 25590,
        "name": "COSMOS 2361",
        "group": "musson",
        "lat": 79.64862178243588,
        "lon": 29.698642662567742,
        "alt_km": 1002.1478002336971,
        "timestamp": "2025-12-08T21:31:04.937551+00:00",
        "meta_object_name": "COSMOS 2361",
        "meta_object_id": "1998-076A",
        "meta_epoch": "2025-12-08T12:55:48.158976",
        "meta_mean_motion": 13.73216831,
        "meta_eccentricity": 0.00300705,
        "meta_inclination": 82.9338,
        "meta_ra_of_asc_node": 347.1939,
        "meta_arg_of_pericenter": 277.8257,
        "meta_mean_anomaly": 196.5408,
        "meta_ephemeris_type": 0,
        "meta_classification_type": "U",
        "meta_norad_cat_id": 25590,
        "meta_element_set_no": 999,
        "meta_rev_at_epoch": 35053,
        "meta_bstar": 8.8363531e-05,
        "meta_mean_motion_dot": 9.7e-07,
        "meta_mean_motion_ddot": 0,
        "tle_line1": "1 25590U 98076A   25342.53875184  .00000097  00000+0  88364-4 0  9996",
        "tle_line2": "2 25590  82.9338 347.1939 0030070 277.8257 196.5408 13.73216831350534"
      },
      "geometry": {
        "type": "Point",
        "coordinates": [
          29.698642662567742,
          79.64862178243588
        ]
      }
    },
    {
      "type": "Feature",
      "properties": {
        "norad_id": 26818,
        "name": "COSMOS 2378",
        "group": "musson",
        "lat": 37.72660568085316,
        "lon": 177.06341935545615,
        "alt_km": 975.3284966210667,
        "timestamp": "2025-12-08T21:31:04.937573+00:00",
        "meta_object_name": "COSMOS 2378",
        "meta_object_id": "2001-023A",
        "meta_epoch": "2025-12-08T14:24:11.880000",
        "meta_mean_motion": 13.74141502,
        "meta_eccentricity": 0.00321727,
        "meta_inclination": 82.9273,
        "meta_ra_of_asc_node": 2.7946,
        "meta_arg_of_pericenter": 216.6396,
        "meta_mean_anomaly": 259.8884,
        "meta_ephemeris_type": 0,
        "meta_classification_type": "U",
        "meta_norad_cat_id": 26818,
        "meta_element_set_no": 999,
        "meta_rev_at_epoch": 22866,
        "meta_bstar": 6.3311891e-05,
        "meta_mean_motion_dot": 7.5e-07,
        "meta_mean_motion_ddot": 0,
        "tle_line1": "1 26818U 01023A   25342.60013750  .00000075  00000+0  63312-4 0  9999",
        "tle_line2": "2 26818  82.9273   2.7946 0032172 216.6396 259.8884 13.74141502228660"
      },
      "geometry": {
        "type": "Point",
        "coordinates": [
          177.06341935545615,
          37.72660568085316
        ]
      }
    },
    {
      "type": "Feature",
      "properties": {
        "norad_id": 27436,
        "name": "COSMOS 2389",
        "group": "musson",
        "lat": -25.310589919827294,
        "lon": -53.52503268541325,
        "alt_km": 990.5314418273356,
        "timestamp": "2025-12-08T21:31:04.937587+00:00",
        "meta_object_name": "COSMOS 2389",
        "meta_object_id": "2002-026A",
        "meta_epoch": "2025-12-08T15:29:48.528384",
        "meta_mean_motion": 13.75154027,
        "meta_eccentricity": 0.00477097,
        "meta_inclination": 82.9499,
        "meta_ra_of_asc_node": 310.0157,
        "meta_arg_of_pericenter": 71.8624,
        "meta_mean_anomaly": 101.9558,
        "meta_ephemeris_type": 0,
        "meta_classification_type": "U",
        "meta_norad_cat_id": 27436,
        "meta_element_set_no": 999,
        "meta_rev_at_epoch": 18092,
        "meta_bstar": 9.6125553e-05,
        "meta_mean_motion_dot": 1.08e-06,
        "meta_mean_motion_ddot": 0,
        "tle_line1": "1 27436U 02026A   25342.64570056  .00000108  00000+0  96126-4 0  9997",
        "tle_line2": "2 27436  82.9499 310.0157 0047709  71.8624 101.9558 13.75154027180921"
      },
      "geometry": {
        "type": "Point",
        "coordinates": [
          -53.52503268541325,
          -25.310589919827294
        ]
      }
    },
    {
      "type": "Feature",
      "properties": {
        "norad_id": 27818,
        "name": "COSMOS 2398",
        "group": "musson",
        "lat": -33.89530056563958,
        "lon": -89.23989825692917,
        "alt_km": 1019.0106167488775,
        "timestamp": "2025-12-08T21:31:04.937606+00:00",
        "meta_object_name": "COSMOS 2398",
        "meta_object_id": "2003-023A",
        "meta_epoch": "2025-12-08T13:46:36.876288",
        "meta_mean_motion": 13.7238505,
        "meta_eccentricity": 0.00324319,
        "meta_inclination": 82.9482,
        "meta_ra_of_asc_node": 275.768,
        "meta_arg_of_pericenter": 122.9501,
        "meta_mean_anomaly": 50.4364,
        "meta_ephemeris_type": 0,
        "meta_classification_type": "U",
        "meta_norad_cat_id": 27818,
        "meta_element_set_no": 999,
        "meta_rev_at_epoch": 12759,
        "meta_bstar": 9.4277566e-05,
        "meta_mean_motion_dot": 1.02e-06,
        "meta_mean_motion_ddot": 0,
        "tle_line1": "1 27818U 03023A   25342.57403792  .00000102  00000+0  94278-4 0  9993",
        "tle_line2": "2 27818  82.9482 275.7680 0032431 122.9501  50.4364 13.72385050127599"
      },
      "geometry": {
        "type": "Point",
        "coordinates": [
          -89.23989825692917,
          -33.89530056563958
        ]
      }
    },
    {
      "type": "Feature",
      "properties": {
        "norad_id": 28380,
        "name": "COSMOS 2407",
        "group": "musson",
        "lat": 70.83698611133059,
        "lon": 14.91273995115806,
        "alt_km": 948.2000411736799,
        "timestamp": "2025-12-08T21:31:04.937617+00:00",
        "meta_object_name": "COSMOS 2407",
        "meta_object_id": "2004-028A",
        "meta_epoch": "2025-12-08T16:00:58.962240",
        "meta_mean_motion": 13.76313059,
        "meta_eccentricity": 0.00404438,
        "meta_inclination": 82.9612,
        "meta_ra_of_asc_node": 215.9077,
        "meta_arg_of_pericenter": 65.8914,
        "meta_mean_anomaly": 346.471,
        "meta_ephemeris_type": 0,
        "meta_classification_type": "U",
        "meta_norad_cat_id": 28380,
        "meta_element_set_no": 999,
        "meta_rev_at_epoch": 7367,
        "meta_bstar": 9.5578726e-05,
        "meta_mean_motion_dot": 1.09e-06,
        "meta_mean_motion_ddot": 0,
        "tle_line1": "1 28380U 04028A   25342.66734910  .00000109  00000+0  95579-4 0  9995",
        "tle_line2": "2 28380  82.9612 215.9077 0040443  65.8914 346.4710 13.76313059 73676"
      },
      "geometry": {
        "type": "Point",
        "coordinates": [
          14.91273995115806,
          70.83698611133059
        ]
      }
    },
    {
      "type": "Feature",
      "properties": {
        "norad_id": 28521,
        "name": "COSMOS 2414",
        "group": "musson",
        "lat": -31.088145728579725,
        "lon": 11.845258301827183,
        "alt_km": 927.3574028325129,
        "timestamp": "2025-12-08T21:31:04.937628+00:00",
        "meta_object_name": "COSMOS 2414",
        "meta_object_id": "2005-002A",
        "meta_epoch": "2025-12-08T15:18:56.511648",
        "meta_mean_motion": 13.87902258,
        "meta_eccentricity": 0.00406618,
        "meta_inclination": 82.9496,
        "meta_ra_of_asc_node": 187.7614,
        "meta_arg_of_pericenter": 151.2073,
        "meta_mean_anomaly": 209.1347,
        "meta_ephemeris_type": 0,
        "meta_classification_type": "U",
        "meta_norad_cat_id": 28521,
        "meta_element_set_no": 999,
        "meta_rev_at_epoch": 5738,
        "meta_bstar": 8.6489487e-05,
        "meta_mean_motion_dot": 1.19e-06,
        "meta_mean_motion_ddot": 0,
        "tle_line1": "1 28521U 05002A   25342.63815407  .00000119  00000+0  86489-4 0  9994",
        "tle_line2": "2 28521  82.9496 187.7614 0040661 151.2073 209.1347 13.87902258 57382"
      },
      "geometry": {
        "type": "Point",
        "coordinates": [
          11.845258301827183,
          -31.088145728579725
        ]
      }
    },
    {
      "type": "Feature",
      "properties": {
        "norad_id": 32052,
        "name": "COSMOS 2429",
        "group": "musson",
        "lat": 18.26491787640503,
        "lon": 163.81188816373978,
        "alt_km": 992.7458920341305,
        "timestamp": "2025-12-08T21:31:04.937639+00:00",
        "meta_object_name": "COSMOS 2429",
        "meta_object_id": "2007-038A",
        "meta_epoch": "2025-12-08T12:00:27.726624",
        "meta_mean_motion": 13.75148764,
        "meta_eccentricity": 0.00394415,
        "meta_inclination": 82.9803,
        "meta_ra_of_asc_node": 346.4344,
        "meta_arg_of_pericenter": 49.3931,
        "meta_mean_anomaly": 311.0645,
        "meta_ephemeris_type": 0,
        "meta_classification_type": "U",
        "meta_norad_cat_id": 32052,
        "meta_element_set_no": 999,
        "meta_rev_at_epoch": 91544,
        "meta_bstar": 7.0068851e-05,
        "meta_mean_motion_dot": 8.3e-07,
        "meta_mean_motion_ddot": 0,
        "tle_line1": "1 32052U 07038A   25342.50032091  .00000083  00000+0  70069-4 0  9992",
        "tle_line2": "2 32052  82.9803 346.4344 0039441  49.3931 311.0645 13.75148764915441"
      },
      "geometry": {
        "type": "Point",
        "coordinates": [
          163.81188816373978,
          18.26491787640503
        ]
      }
    },
    {
      "type": "Feature",
      "properties": {
        "norad_id": 35635,
        "name": "COSMOS 2454",
        "group": "musson",
        "lat": -52.675865457929824,
        "lon": 0.891175796506224,
        "alt_km": 948.704746696555,
        "timestamp": "2025-12-08T21:31:04.937649+00:00",
        "meta_object_name": "COSMOS 2454",
        "meta_object_id": "2009-039A",
        "meta_epoch": "2025-12-08T15:34:05.813760",
        "meta_mean_motion": 13.89927869,
        "meta_eccentricity": 0.00204811,
        "meta_inclination": 82.9556,
        "meta_ra_of_asc_node": 171.7463,
        "meta_arg_of_pericenter": 84.6683,
        "meta_mean_anomaly": 348.6377,
        "meta_ephemeris_type": 0,
        "meta_classification_type": "U",
        "meta_norad_cat_id": 35635,
        "meta_element_set_no": 999,
        "meta_rev_at_epoch": 83093,
        "meta_bstar": 6.7381884e-05,
        "meta_mean_motion_dot": 9.9e-07,
        "meta_mean_motion_ddot": 0,
        "tle_line1": "1 35635U 09039A   25342.64867840  .00000099  00000+0  67382-4 0  9999",
        "tle_line2": "2 35635  82.9556 171.7463 0020481  84.6683 348.6377 13.89927869830931"
      },
      "geometry": {
        "type": "Point",
        "coordinates": [
          0.891175796506224,
          -52.675865457929824
        ]
      }
    },
    {
      "type": "Feature",
      "properties": {
        "norad_id": 36519,
        "name": "COSMOS 2463",
        "group": "musson",
        "lat": 14.208894897203894,
        "lon": -152.25580254205,
        "alt_km": 1012.2171133069332,
        "timestamp": "2025-12-08T21:31:04.937660+00:00",
        "meta_object_name": "COSMOS 2463",
        "meta_object_id": "2010-017A",
        "meta_epoch": "2025-12-08T16:01:01.163712",
        "meta_mean_motion": 13.71648756,
        "meta_eccentricity": 0.00348854,
        "meta_inclination": 82.9616,
        "meta_ra_of_asc_node": 29.7051,
        "meta_arg_of_pericenter": 299.7752,
        "meta_mean_anomaly": 174.897,
        "meta_ephemeris_type": 0,
        "meta_classification_type": "U",
        "meta_norad_cat_id": 36519,
        "meta_element_set_no": 999,
        "meta_rev_at_epoch": 78181,
        "meta_bstar": 9.0474417e-05,
        "meta_mean_motion_dot": 9.7e-07,
        "meta_mean_motion_ddot": 0,
        "tle_line1": "1 36519U 10017A   25342.66737458  .00000097  00000+0  90474-4 0  9998",
        "tle_line2": "2 36519  82.9616  29.7051 0034885 299.7752 174.8970 13.71648756781810"
      },
      "geometry": {
        "type": "Point",
        "coordinates": [
          -152.25580254205,
          14.208894897203894
        ]
      }
    }
  ]
}